{
  "type": "FeatureCollection",
  "features": [
    {
      "type": "Feature",
      "properties": {
        "norad_id": 35043,
        "name": "COSMOS 2251 DEB",
        "group": "cosmos-2251-debris",
        "lat": -20.30409590993882,
        "lon": -139.25697022296103,
        "alt_km": 592.5674360054509,
        "timestamp": "2025-12-18T07:01:54.985427+00:00",
        "meta_object_name": "COSMOS 2251 DEB",
        "meta_object_id": "1993-036AHG",
        "meta_epoch": "2025-12-17T20:21:53.442144",
        "meta_mean_motion": 14.77209563,
        "meta_eccentricity": 0.00961591,
        "meta_inclination": 73.9521,
        "meta_ra_of_asc_node": 35.5053,
        "meta_arg_of_pericenter": 244.0686,
        "meta_mean_anomaly": 115.0556,
        "meta_ephemeris_type": 0,
        "meta_classification_type": "U",
        "meta_norad_cat_id": 35043,
        "meta_element_set_no": 999,
        "meta_rev_at_epoch": 67494,
        "meta_bstar": 0.0025445416,
        "meta_mean_motion_dot": 0.00019479,
        "meta_mean_motion_ddot": 0,
        "tle_line1": "1 35043U 93036AHG 25351.84853521  .00019479  00000+0  25445-2 0  9999",
        "tle_line2": "2 35043  73.9521  35.5053 0096159 244.0686 115.0556 14.77209563674942"
      },
      "geometry": {
        "type": "Point",
        "coordinates": [
          -139.25697022296103,
          -20.30409590993882
        ]
      }
    },
    {
      "type": "Feature",
      "properties": {
        "norad_id": 35045,
        "name": "COSMOS 2251 DEB",
        "group": "cosmos-2251-debris",
        "lat": -59.15943831791985,
        "lon": 13.592779247632564,
        "alt_km": 768.5249502524239,
        "timestamp": "2025-12-18T07:01:54.985438+00:00",
        "meta_object_name": "COSMOS 2251 DEB",
        "meta_object_id": "1993-036AHJ",
        "meta_epoch": "2025-12-17T21:02:24.491040",
        "meta_mean_motion": 14.00397083,
        "meta_eccentricity": 0.01838417,
        "meta_inclination": 73.7196,
        "meta_ra_of_asc_node": 43.6312,
        "meta_arg_of_pericenter": 284.9359,
        "meta_mean_anomaly": 73.1483,
        "meta_ephemeris_type": 0,
        "meta_classification_type": "U",
        "meta_norad_cat_id": 35045,
        "meta_element_set_no": 999,
        "meta_rev_at_epoch": 84715,
        "meta_bstar": 0.00057935315,
        "meta_mean_motion_dot": 9.66e-06,
        "meta_mean_motion_ddot": 0,
        "tle_line1": "1 35045U 93036AHJ 25351.87667235  .00000966  00000+0  57935-3 0  9990",
        "tle_line2": "2 35045  73.7196  43.6312 0183841 284.9359  73.1483 14.00397083847152"
      },
      "geometry": {
        "type": "Point",
        "coordinates": [
          13.592779247632564,
          -59.15943831791985
        ]
      }
    },
    {
      "type": "Feature",
      "properties": {
        "norad_id": 35060,
        "name": "COSMOS 2251 DEB",
        "group": "cosmos-2251-debris",
        "lat": -51.1173546990993,
        "lon": -146.74925654682391,
        "alt_km": 746.8556298525418,
        "timestamp": "2025-12-18T07:01:54.985448+00:00",
        "meta_object_name": "COSMOS 2251 DEB",
        "meta_object_id": "1993-036AHP",
        "meta_epoch": "2025-12-17T09:37:48.798336",
        "meta_mean_motion": 14.41611034,
        "meta_eccentricity": 0.00186104,
        "meta_inclination": 74.0362,
        "meta_ra_of_asc_node": 235.6937,
        "meta_arg_of_pericenter": 321.6138,
        "meta_mean_anomaly": 38.3692,
        "meta_ephemeris_type": 0,
        "meta_classification_type": "U",
        "meta_norad_cat_id": 35060,
        "meta_element_set_no": 999,
        "meta_rev_at_epoch": 87309,
        "meta_bstar": 0.00026105938,
        "meta_mean_motion_dot": 8.25e-06,
        "meta_mean_motion_ddot": 0,
        "tle_line1": "1 35060U 93036AHP 25351.40125924  .00000825  00000+0  26106-3 0  9990",
        "tle_line2": "2 35060  74.0362 235.6937 0018610 321.6138  38.3692 14.41611034873096"
      },
      "geometry": {
        "type": "Point",
        "coordinates": [
          -146.74925654682391,
          -51.1173546990993
        ]
      }
    },
    {
      "type": "Feature",
      "properties": {
        "norad_id": 35061,
        "name": "COSMOS 2251 DEB",
        "group": "cosmos-2251-debris",
        "lat": -5.832625594788271,
        "lon": -66.6741180646747,
        "alt_km": 653.496815774376,
        "timestamp": "2025-12-18T07:01:54.985458+00:00",
        "meta_object_name": "COSMOS 2251 DEB",
        "meta_object_id": "1993-036AHQ",
        "meta_epoch": "2025-12-16T02:43:00.799680",
        "meta_mean_motion": 14.67857584,
        "meta_eccentricity": 0.00392707,
        "meta_inclination": 74.0455,
        "meta_ra_of_asc_node": 299.2082,
        "meta_arg_of_pericenter": 49.0905,
        "meta_mean_anomaly": 311.3654,
        "meta_ephemeris_type": 0,
        "meta_classification_type": "U",
        "meta_norad_cat_id": 35061,
        "meta_element_set_no": 999,
        "meta_rev_at_epoch": 88624,
        "meta_bstar": 0.00056925781,
        "meta_mean_motion_dot": 3.26e-05,
        "meta_mean_motion_ddot": 0,
        "tle_line1": "1 35061U 93036AHQ 25350.11320370  .00003260  00000+0  56926-3 0  9999",
        "tle_line2": "2 35061  74.0455 299.2082 0039270  49.0905 311.3654 14.67857584886248"
      },
      "geometry": {
        "type": "Point",
        "coordinates": [
          -66.6741180646747,
          -5.832625594788271
        ]
      }
    },
    {
      "type": "Feature",
      "properties": {
        "norad_id": 35062,
        "name": "COSMOS 2251 DEB",
        "group": "cosmos-2251-debris",
        "lat": -52.073146833222935,
        "lon": -75.21816426654384,
        "alt_km": 903.4954680155297,
        "timestamp": "2025-12-18T07:01:54.985468+00:00",
        "meta_object_name": "COSMOS 2251 DEB",
        "meta_object_id": "1993-036AHR",
        "meta_epoch": "2025-12-10T15:42:45.436320",
        "meta_mean_motion": 14.22906612,
        "meta_eccentricity": 0.01275957,
        "meta_inclination": 74.0784,
        "meta_ra_of_asc_node": 96.9836,
        "meta_arg_of_pericenter": 97.3041,
        "meta_mean_anomaly": 264.2628,
        "meta_ephemeris_type": 0,
        "meta_classification_type": "U",
        "meta_norad_cat_id": 35062,
        "meta_element_set_no": 999,
        "meta_rev_at_epoch": 85469,
        "meta_bstar": 0.0028656551,
        "meta_mean_motion_dot": 6.986e-05,
        "meta_mean_motion_ddot": 0,
        "tle_line1": "1 35062U 93036AHR 25344.65469255  .00006986  00000+0  28657-2 0  9995",
        "tle_line2": "2 35062  74.0784  96.9836 0127595  97.3041 264.2628 14.22906612854697"
      },
      "geometry": {
        "type": "Point",
        "coordinates": [
          -75.21816426654384,
          -52.073146833222935
        ]
      }
    },
    {
      "type": "Feature",
      "properties": {
        "norad_id": 35065,
        "name": "COSMOS 2251 DEB",
        "group": "cosmos-2251-debris",
        "lat": 15.615074597339659,
        "lon": -171.43466326315723,
        "alt_km": 734.7094073640883,
        "timestamp": "2025-12-18T07:01:54.985478+00:00",
        "meta_object_name": "COSMOS 2251 DEB",
        "meta_object_id": "1993-036AHU",
        "meta_epoch": "2025-12-15T07:32:45.576096",
        "meta_mean_motion": 14.45733893,
        "meta_eccentricity": 0.00199052,
        "meta_inclination": 74.019,
        "meta_ra_of_asc_node": 189.5298,
        "meta_arg_of_pericenter": 314.3681,
        "meta_mean_anomaly": 45.5846,
        "meta_ephemeris_type": 0,
        "meta_classification_type": "U",
        "meta_norad_cat_id": 35065,
        "meta_element_set_no": 999,
        "meta_rev_at_epoch": 68388,
        "meta_bstar": 0.00034144119,
        "meta_mean_motion_dot": 1.186e-05,
        "meta_mean_motion_ddot": 0,
        "tle_line1": "1 35065U 93036AHU 25349.31441639  .00001186  00000+0  34144-3 0  9998",
        "tle_line2": "2 35065  74.0190 189.5298 0019905 314.3681  45.5846 14.45733893683886"
      },
      "geometry": {
        "type": "Point",
        "coordinates": [
          -171.43466326315723,
          15.615074597339659
        ]
      }
    },
    {
      "type": "Feature",
      "properties": {
        "norad_id": 35071,
        "name": "COSMOS 2251 DEB",
        "group": "cosmos-2251-debris",
        "lat": -48.34760161854945,
        "lon": 143.1084561710376,
        "alt_km": 576.6920536534371,
        "timestamp": "2025-12-18T07:01:54.985488+00:00",
        "meta_object_name": "COSMOS 2251 DEB",
        "meta_object_id": "1993-036AJA",
        "meta_epoch": "2025-12-15T18:34:31.974816",
        "meta_mean_motion": 15.0351885,
        "meta_eccentricity": 0.00682233,
        "meta_inclination": 73.9308,
        "meta_ra_of_asc_node": 167.1964,
        "meta_arg_of_pericenter": 62.71,
        "meta_mean_anomaly": 298.1014,
        "meta_ephemeris_type": 0,
        "meta_classification_type": "U",
        "meta_norad_cat_id": 35071,
        "meta_element_set_no": 999,
        "meta_rev_at_epoch": 67582,
        "meta_bstar": 0.00048026378,
        "meta_mean_motion_dot": 6.858e-05,
        "meta_mean_motion_ddot": 0,
        "tle_line1": "1 35071U 93036AJA 25349.77398119  .00006858  00000+0  48026-3 0  9994",
        "tle_line2": "2 35071  73.9308 167.1964 0068223  62.7100 298.1014 15.03518850675828"
      },
      "geometry": {
        "type": "Point",
        "coordinates": [
          143.1084561710376,
          -48.34760161854945
        ]
      }
    }
  ]
}